COSMOS 1892             
1 18421U 87088A   19193.71366474  .00000565  00000-0  26994-4 0  9998
2 18421  82.4999 250.6904 0015697 163.4612 196.7137 15.16856133733114
SL-14 R/B               
1 18749U 88001B   19193.87640796  .00000041  00000-0  20880-5 0  9994
2 18749  82.5153 316.7996 0018288 345.2965 132.5719 14.83191737702480
COSMOS 1933             
1 18958U 88020A   19193.87889933  .00000403  00000-0  27360-4 0  9996
2 18958  82.5303  94.4440 0010351 226.7339 133.3024 15.03609454683900
SL-3 R/B                
1 19046U 88032B   19193.91516952  .00000174  00000-0  17361-4 0  9996
2 19046  97.4315 224.4575 0036959 285.8687  73.8466 15.02575509685828
SL-16 R/B               
1 19120U 88039B   19193.89314883 -.00000102  00000-0 -25736-4 0  9990
2 19120  71.0128 168.1318 0019870 111.6649 248.6594 14.19194014613333
COSMOS 1953             
1 19210U 88050A   19193.90101625 -.00000116  00000-0 -10013-4 0  9990
2 19210  82.5157  20.3407 0012960 193.4270 166.6615 15.05796978691546
SL-8 R/B                
1 19257U 88053B   19193.78409473  .00000023  00000-0  16610-4 0  9996
2 19257  74.0491 267.3607 0021177 328.3646 170.3838 14.37441887627330
COSMOS 1975             
1 19573U 88093A   19193.89514830 -.00000115  00000-0 -10222-4 0  9994
2 19573  82.5209 333.9902 0012992 240.1222 119.8714 15.04708414652297
SL-14 R/B               
1 19574U 88093B   19193.88948337  .00000058  00000-0  41040-5 0  9994
2 19574  82.5324 158.4972 0022565 141.6514 241.1647 14.83301753661474
SL-16 R/B               
1 19650U 88102B   19193.51217165 -.00000240  00000-0 -97885-4 0  9990
2 19650  70.9972 226.8325 0012264 117.7225 242.5144 14.15780717582902
INTERCOSMOS 24          
1 20261U 89080A   19193.66821138  .00000263  00000-0  70784-4 0  9995
2 20261  82.6037 240.7691 1203765 154.1321 212.5404 12.56085202360805
SL-14 R/B               
1 20262U 89080C   19193.87251990  .00000007  00000-0 -33217-6 0  9991
2 20262  82.5950 292.0771 1236842 333.7428  20.5678 12.48917847356471
DELTA 2 R/B(1)          
1 20303U 89085B   19193.84613348  .00000853  00000-0  30369-4 0  9999
2 20303  35.6267 348.6830 0097261  29.0062 331.6024 15.26297463616518
DELTA 1 R/B             
1 20323U 89089B   19193.89781411  .00000026  00000-0  15923-4 0  9998
2 20323  97.0673  29.9029 0070670 222.3442 137.2288 14.48307596543576
DELTA 2 R/B(1)          
1 20362U 89097B   19193.59400403  .00024136  00000-0  14628-3 0  9994
2 20362  35.6016 264.7816 0026779 207.6894 296.1718 15.76015959618071
ARIANE 40 R/B           
1 20443U 90005H   19193.79317872 -.00000003  00000-0  13742-4 0  9999
2 20443  98.6240 250.2512 0009203 277.6585  82.3557 14.38064787543410
DELTA 2 R/B(1)          
1 20453U 90008B   19193.86075628  .00000857  00000-0  50976-4 0  9997
2 20453  35.6257 103.7232 0283149 342.8779  16.2540 14.84915359560535
COSMOS 2058             
1 20465U 90010A   19193.70346893  .00000117  00000-0  76547-5 0  9993
2 20465  82.4885 241.1996 0013820 269.2803  90.6836 14.97886233598421
SL-14 R/B               
1 20466U 90010B   19193.90685009  .00000084  00000-0  77577-5 0  9998
2 20466  82.5024  25.4623 0021021  20.3906 339.8142 14.81359144568312
SL-14 R/B               
1 20511U 90018B   19193.93147561  .00000049  00000-0  33571-5 0  9993
2 20511  82.5239 330.2909 0018229 150.4603 329.7605 14.80015815562746
HST                     
1 20580U 90037B   19193.89177653  .00000381  00000-0  12240-4 0  9998
2 20580  28.4704  51.9134 0002742  28.5582  83.3165 15.09243829404546
SL-16 R/B               
1 20625U 90046B   19193.89537396 -.00000302  00000-0 -13227-3 0  9992
2 20625  70.9992   3.0131 0012993  31.2115 328.9776 14.14642707504454
COSMOS 2084             
1 20663U 90055A   19193.58798537 -.00000076  00000-0  11271-4 0  9991
2 20663  62.7928 226.2305 0072222 171.4010 188.8341 14.91991327572500
SL-6 R/B(2)             
1 20666U 90055D   19194.36911773 -.00000101  00000-0  82557-5 0  9995
2 20666  62.7860 140.7963 0038060 209.5856 150.3085 14.92254433574019
SL-8 R/B                
1 20775U 90078B   19193.91436038  .00001122  00000-0  53083-4 0  9991
2 20775  82.9278 147.2392 0577526 168.7411 192.7380 14.33379415456945
SL-8 R/B                
1 21088U 91006B   19193.91989361 -.00000059  00000-0 -75234-4 0  9995
2 21088  82.9419 178.4070 0022784   8.4602  49.5094 13.77118582429340
OKEAN-3                 
1 21397U 91039A   19193.88499484  .00000167  00000-0  13624-4 0  9995
2 21397  82.5227 140.3918 0016579 225.9167 134.0689 14.92817117501453
COSMOS 2151             
1 21422U 91042A   19193.71864709  .00000118  00000-0  91333-5 0  9996
2 21422  82.4999 247.3277 0012673 293.7797  66.2093 14.92056175521159
SL-14 R/B               
1 21423U 91042B   19193.86457952  .00000066  00000-0  57418-5 0  9999
2 21423  82.4947 335.2102 0016217 297.4219  62.5344 14.79766475514331
ERS-1                   
1 21574U 91050A   19193.89125223  .00000004  00000-0  16159-4 0  9999
2 21574  98.5509 143.0807 0032120 219.5906 140.2935 14.37701459466180
ARIANE 40 R/B           
1 21610U 91050F   19193.80495887 -.00000017  00000-0  85184-5 0  9997
2 21610  98.5075 260.6260 0003114 179.0257 290.2563 14.40876035468922
INTERCOSMOS 25          
1 21819U 91086A   19193.85932985  .00000167  00000-0  34635-4 0  9996
2 21819  82.5991 330.1210 1515518 277.8134  65.4106 12.05038529203265
SL-8 R/B                
1 21876U 92008B   19193.85153729  .00000027  00000-0  12222-4 0  9998
2 21876  82.9274 275.5640 0036201  85.2594  53.0744 13.75635491375273
SL-8 R/B                
1 21938U 92020B   19193.90161972 -.00000037  00000-0 -54199-4 0  9998
2 21938  82.9303 159.4135 0027830 242.6692 173.9454 13.75269911366865
COSMOS 2219             
1 22219U 92076A   19193.92889958 -.00000055  00000-0 -42772-5 0  9990
2 22219  71.0621  59.0523 0020181 310.6801  49.2567 14.13644328374698
SL-16 R/B               
1 22220U 92076B   19193.69836994  .00000214  00000-0  13168-3 0  9998
2 22220  71.0000 268.8902 0013862 209.9726 263.5850 14.16444033377756
COSMOS 2221             
1 22236U 92080A   19193.79645388  .00000128  00000-0  11303-4 0  9990
2 22236  82.5076  65.5169 0017169  17.5849 342.5959 14.87840135439661
SL-16 R/B               
1 22285U 92093B   19193.92564606 -.00000271  00000-0 -11521-3 0  9998
2 22285  71.0218  66.9011 0002682  28.0022 332.1245 14.15031982369164
COSMOS 2228             
1 22286U 92094A   19193.93244423  .00000148  00000-0  13300-4 0  9992
2 22286  82.5194  21.2039 0022382 129.5435 230.7765 14.88055302413806
SL-16 R/B               
1 22566U 93016B   19193.65095773  .00000073  00000-0  62080-4 0  9995
2 22566  71.0074 281.1327 0008477  58.6480 301.5471 14.14954798358147
COSMOS 2242             
1 22626U 93024A   19193.74302462  .00000136  00000-0  12087-4 0  9999
2 22626  82.5211  49.3714 0020139 129.4947 230.8055 14.87915500418497
SL-16 R/B               
1 22803U 93059B   19193.88944226 -.00000123  00000-0 -37447-4 0  9994
2 22803  70.9914  96.9623 0018953 309.9919  49.9540 14.16811383335062
ARIANE 40 R/B           
1 22830U 93061H   19193.68393687 -.00000028  00000-0  66529-5 0  9991
2 22830  98.8130 233.7597 0009964 236.4087 123.6144 14.31436690346326
COSMOS 2278             
1 23087U 94023A   19193.64487586 -.00000297  00000-0 -13188-3 0  9993
2 23087  71.0518 220.0004 0007473 157.4132 202.7321 14.13789640301279
SL-16 R/B               
1 23088U 94023B   19193.94102116  .00000222  00000-0  14008-3 0  9998
2 23088  71.0006 135.8268 0002879 353.3857   6.7227 14.14682442302151
SL-16 R/B               
1 23343U 94074B   19193.78606421  .00000007  00000-0  83919-5 0  9998
2 23343  98.0502 243.7392 0007374 156.5982 338.5776 14.76783517328346
SL-16 R/B               
1 23405U 94077B   19193.87091728 -.00000221  00000-0 -89094-4 0  9997
2 23405  70.9842  66.5641 0004966 263.3627  96.6931 14.15213687272427
ERS-2                   
1 23560U 95021A   19193.88147417  .00000747  00000-0  35950-4 0  9990
2 23560  98.5057 296.9014 0002254 243.1834 116.9169 15.22608094290282
ARIANE 40+ R/B          
1 23561U 95021B   19193.91187420  .00000019  00000-0  21676-4 0  9995
2 23561  98.7644 222.0582 0007032 173.5285 242.9933 14.37927793269631
SL-16 R/B               
1 23705U 95058B   19193.59834987  .00000202  00000-0  12870-3 0  9995
2 23705  71.0214 244.1096 0014188 232.7374 127.2455 14.15128483224056
SL-16 R/B               
1 24298U 96051B   19193.66288314  .00000062  00000-0  59973-4 0  9992
2 24298  70.8281 269.1090 0015372 151.9107 208.2845 14.12410547178499
ORBVIEW 2 (SEASTAR)     
1 24883U 97037A   19193.92805011  .00000027  00000-0  25635-4 0  9994
2 24883  98.5867 304.4603 0003082  53.0204 307.1262 14.33511500160187
SL-16 R/B               
1 25400U 98043G   19193.85534118 -.00000043  00000-0  17786-6 0  9996
2 25400  98.5729 131.7285 0008839 246.0294 113.9961 14.25441890 92723
SL-16 R/B               
1 25407U 98045B   19193.58113967 -.00000083  00000-0 -18162-4 0  9992
2 25407  71.0106 253.9659 0006497 149.8917 210.2580 14.15784611 83107
ISS (ZARYA)             
1 25544U 98067A   19194.60966140  .00000115  00000-0  98107-5 0  9993
2 25544  51.6428 230.1777 0007180 135.6314   7.5804 15.50974446179358
SL-8 R/B                
1 25723U 99022C   19193.84448943  .00007632  00000-0  78319-4 0  9998
2 25723  48.4143  63.0479 0006580 116.0354 244.1274 15.65900600124152
CZ-4B R/B               
1 25732U 99025C   19193.93591866 -.00000032  00000-0  66043-5 0  9994
2 25732  98.9749 214.6948 0038447 100.3369 320.7136 14.17665482 43574
OKEAN-O                 
1 25860U 99039A   19193.93846673  .00000010  00000-0  91607-5 0  9999
2 25860  98.2255 201.7054 0000942 108.4843 251.6469 14.76612888 75260
SL-16 R/B               
1 25861U 99039B   19193.92963000  .00000007  00000-0  84102-5 0  9991
2 25861  98.1892 184.7025 0015942 166.7557 249.8900 14.78536408 77301
